start=new Date('2023-02-12T00:00:00.000Z').valueOf();
sats=[{"EPOCH":"2023-02-11T23:29:53.526336","OBJECT_NAME":"STARLINK-4209","PERIOD":"95.438","MEAN_ELEMENT_THEORY":"SGP4","MEAN_MOTION":"15.08832925","PERIAPSIS":"538.827","SITE":"AFETR","GP_ID":"225160379","DECAY_DATE":null,"MEAN_MOTION_DDOT":"0.0000000000000","TIME_SYSTEM":"UTC","MEAN_MOTION_DOT":"-0.00003018","LAUNCH_DATE":"2022-06-17","APOAPSIS":"540.707","TLE_LINE2":"2 52855  53.2177  19.6736 0001359 111.9900 248.1236 15.08832925 37079","OBJECT_ID":"2022-062AB","COUNTRY_CODE":"US","RA_OF_ASC_NODE":"19.6736","ARG_OF_PERICENTER":"111.9900","OBJECT_TYPE":"PAYLOAD","FILE":"3786521","INCLINATION":"53.2177","BSTAR":"-0.00017162000000","REF_FRAME":"TEME","REV_AT_EPOCH":"3707","CENTER_NAME":"EARTH","ELEMENT_SET_NO":"999","EPHEMERIS_TYPE":"0","RCS_SIZE":"LARGE","MEAN_ANOMALY":"248.1236","ECCENTRICITY":"0.00013590","SEMIMAJOR_AXIS":"6917.902","CLASSIFICATION_TYPE":"U","TLE_LINE1":"1 52855U 22062AB  23042.97909174 -.00003018  00000-0 -17162-3 0  9998","NORAD_CAT_ID":"52855"},{"PERIAPSIS":"537.903","GP_ID":"225184290","DECAY_DATE":null,"SITE":"AFETR","MEAN_MOTION_DOT":"0.00003785","LAUNCH_DATE":"2022-06-17","MEAN_MOTION_DDOT":"0.0000000000000","TIME_SYSTEM":"UTC","ARG_OF_PERICENTER":"75.2441","RA_OF_ASC_NODE":"21.1425","COUNTRY_CODE":"US","OBJECT_ID":"2022-062AC","TLE_LINE2":"2 52856  53.2181  21.1425 0002643  75.2441 284.8844 15.08844544 36539","APOAPSIS":"541.560","EPOCH":"2023-02-11T15:38:16.119744","PERIOD":"95.437","OBJECT_NAME":"STARLINK-4201","MEAN_MOTION":"15.08844544","MEAN_ELEMENT_THEORY":"SGP4","ELEMENT_SET_NO":"999","CENTER_NAME":"EARTH","MEAN_ANOMALY":"284.8844","RCS_SIZE":"LARGE","EPHEMERIS_TYPE":"0","SEMIMAJOR_AXIS":"6917.866","ECCENTRICITY":"0.00026430","CLASSIFICATION_TYPE":"U","TLE_LINE1":"1 52856U 22062AC  23042.65157546  .00003785  00000-0  25577-3 0  9990","NORAD_CAT_ID":"52856","FILE":"3786577","OBJECT_TYPE":"PAYLOAD","BSTAR":"0.00025577000000","INCLINATION":"53.2181","REV_AT_EPOCH":"3653","REF_FRAME":"TEME"},{"BSTAR":"-0.00001779700000","INCLINATION":"53.2191","FILE":"3786521","OBJECT_TYPE":"PAYLOAD","REV_AT_EPOCH":"3707","REF_FRAME":"TEME","MEAN_ANOMALY":"249.6853","RCS_SIZE":"LARGE","EPHEMERIS_TYPE":"0","ELEMENT_SET_NO":"999","CENTER_NAME":"EARTH","TLE_LINE1":"1 52857U 22062AD  23042.97173376 -.00000571  00000-0 -17797-4 0  9993","CLASSIFICATION_TYPE":"U","NORAD_CAT_ID":"52857","SEMIMAJOR_AXIS":"6917.896","ECCENTRICITY":"0.00016320","EPOCH":"2023-02-11T23:19:17.796864","MEAN_MOTION":"15.08834939","MEAN_ELEMENT_THEORY":"SGP4","PERIOD":"95.438","OBJECT_NAME":"STARLINK-4199","GP_ID":"225160462","DECAY_DATE":null,"SITE":"AFETR","PERIAPSIS":"538.632","ARG_OF_PERICENTER":"110.4314","RA_OF_ASC_NODE":"19.7059","OBJECT_ID":"2022-062AD","COUNTRY_CODE":"US","APOAPSIS":"540.890","TLE_LINE2":"2 52857  53.2191  19.7059 0001632 110.4314 249.6853 15.08834939 37071","MEAN_MOTION_DOT":"-0.00000571","LAUNCH_DATE":"2022-06-17","TIME_SYSTEM":"UTC","MEAN_MOTION_DDOT":"0.0000000000000"},{"MEAN_MOTION_DDOT":"0.0000000000000","TIME_SYSTEM":"UTC","LAUNCH_DATE":"2022-06-17","MEAN_MOTION_DOT":"0.00003908","OBJECT_ID":"2022-062AE","COUNTRY_CODE":"US","TLE_LINE2":"2 52858  53.2174  21.1554 0001261  77.9401 282.1733 15.08846723 36535","APOAPSIS":"540.597","ARG_OF_PERICENTER":"77.9401","RA_OF_ASC_NODE":"21.1554","PERIAPSIS":"538.852","SITE":"AFETR","DECAY_DATE":null,"GP_ID":"225185791","PERIOD":"95.437","OBJECT_NAME":"STARLINK-4198","MEAN_ELEMENT_THEORY":"SGP4","MEAN_MOTION":"15.08846723","EPOCH":"2023-02-11T15:34:20.322048","ECCENTRICITY":"0.00012610","SEMIMAJOR_AXIS":"6917.860","TLE_LINE1":"1 52858U 22062AE  23042.64884632  .00003908  00000-0  26345-3 0  9995","CLASSIFICATION_TYPE":"U","NORAD_CAT_ID":"52858","ELEMENT_SET_NO":"999","CENTER_NAME":"EARTH","RCS_SIZE":"LARGE","EPHEMERIS_TYPE":"0","MEAN_ANOMALY":"282.1733","REV_AT_EPOCH":"3653","REF_FRAME":"TEME","OBJECT_TYPE":"PAYLOAD","FILE":"3786577","INCLINATION":"53.2174","BSTAR":"0.00026345000000"},{"ELEMENT_SET_NO":"999","CENTER_NAME":"EARTH","MEAN_ANOMALY":"244.2031","RCS_SIZE":"LARGE","EPHEMERIS_TYPE":"0","SEMIMAJOR_AXIS":"6917.686","ECCENTRICITY":"0.00013060","TLE_LINE1":"1 52859U 22062AF  23042.43811970  .00048870  00000-0  30622-2 0  9997","NORAD_CAT_ID":"52859","CLASSIFICATION_TYPE":"U","FILE":"3786521","OBJECT_TYPE":"PAYLOAD","BSTAR":"0.00306220000000","INCLINATION":"53.2192","REV_AT_EPOCH":"3699","REF_FRAME":"TEME","PERIAPSIS":"538.647","GP_ID":"225160387","DECAY_DATE":null,"SITE":"AFETR","LAUNCH_DATE":"2022-06-17","MEAN_MOTION_DOT":"0.00048870","MEAN_MOTION_DDOT":"0.0000000000000","TIME_SYSTEM":"UTC","RA_OF_ASC_NODE":"22.1025","ARG_OF_PERICENTER":"115.9096","COUNTRY_CODE":"US","OBJECT_ID":"2022-062AF","TLE_LINE2":"2 52859  53.2192  22.1025 0001306 115.9096 244.2031 15.08903721 36995","APOAPSIS":"540.454","EPOCH":"2023-02-11T10:30:53.542080","PERIOD":"95.434","OBJECT_NAME":"STARLINK-4196","MEAN_MOTION":"15.08903721","MEAN_ELEMENT_THEORY":"SGP4"},{"LAUNCH_DATE":"2022-06-17","MEAN_MOTION_DOT":"0.00014635","MEAN_MOTION_DDOT":"0.0000000000000","TIME_SYSTEM":"UTC","RA_OF_ASC_NODE":"19.9969","ARG_OF_PERICENTER":"84.9596","TLE_LINE2":"2 52860  53.2191  19.9969 0002627  84.9596 275.1696 15.08849761 36571","APOAPSIS":"541.533","COUNTRY_CODE":"US","OBJECT_ID":"2022-062AG","PERIAPSIS":"537.898","GP_ID":"225184791","DECAY_DATE":null,"SITE":"AFETR","OBJECT_NAME":"STARLINK-4191","PERIOD":"95.437","MEAN_MOTION":"15.08849761","MEAN_ELEMENT_THEORY":"SGP4","EPOCH":"2023-02-11T21:49:12.443520","SEMIMAJOR_AXIS":"6917.851","ECCENTRICITY":"0.00026270","CLASSIFICATION_TYPE":"U","TLE_LINE1":"1 52860U 22062AG  23042.90917180  .00014635  00000-0  93543-3 0  9995","NORAD_CAT_ID":"52860","CENTER_NAME":"EARTH","ELEMENT_SET_NO":"999","MEAN_ANOMALY":"275.1696","EPHEMERIS_TYPE":"0","RCS_SIZE":"LARGE","REF_FRAME":"TEME","REV_AT_EPOCH":"3657","FILE":"3786577","OBJECT_TYPE":"PAYLOAD","BSTAR":"0.00093543000000","INCLINATION":"53.2191"},{"REF_FRAME":"TEME","REV_AT_EPOCH":"3706","INCLINATION":"53.2167","BSTAR":"-0.00035758000000","OBJECT_TYPE":"PAYLOAD","FILE":"3786521","NORAD_CAT_ID":"52861","TLE_LINE1":"1 52861U 22062AH  23042.88340729 -.00005973  00000-0 -35758-3 0  9993","CLASSIFICATION_TYPE":"U","ECCENTRICITY":"0.00011550","SEMIMAJOR_AXIS":"6917.908","EPHEMERIS_TYPE":"0","RCS_SIZE":"LARGE","MEAN_ANOMALY":"258.4175","CENTER_NAME":"EARTH","ELEMENT_SET_NO":"999","MEAN_ELEMENT_THEORY":"SGP4","MEAN_MOTION":"15.08830871","OBJECT_NAME":"STARLINK-4112","PERIOD":"95.438","EPOCH":"2023-02-11T21:12:06.389856","TLE_LINE2":"2 52861  53.2167  20.1091 0001155 101.6947 258.4175 15.08830871 37060","APOAPSIS":"540.572","OBJECT_ID":"2022-062AH","COUNTRY_CODE":"US","RA_OF_ASC_NODE":"20.1091","ARG_OF_PERICENTER":"101.6947","MEAN_MOTION_DDOT":"0.0000000000000","TIME_SYSTEM":"UTC","MEAN_MOTION_DOT":"-0.00005973","LAUNCH_DATE":"2022-06-17","SITE":"AFETR","DECAY_DATE":null,"GP_ID":"225160386","PERIAPSIS":"538.974"},{"SEMIMAJOR_AXIS":"6917.706","ECCENTRICITY":"0.00010840","CLASSIFICATION_TYPE":"U","TLE_LINE1":"1 52862U 22062AJ  23042.43443955  .00050069  00000-0  31369-2 0  9997","NORAD_CAT_ID":"52862","CENTER_NAME":"EARTH","ELEMENT_SET_NO":"999","MEAN_ANOMALY":"267.0561","EPHEMERIS_TYPE":"0","RCS_SIZE":"LARGE","REF_FRAME":"TEME","REV_AT_EPOCH":"3650","FILE":"3786144","OBJECT_TYPE":"PAYLOAD","BSTAR":"0.00313690000000","INCLINATION":"53.2184","MEAN_MOTION_DOT":"0.00050069","LAUNCH_DATE":"2022-06-17","TIME_SYSTEM":"UTC","MEAN_MOTION_DDOT":"0.0000000000000","RA_OF_ASC_NODE":"22.1145","ARG_OF_PERICENTER":"93.0555","TLE_LINE2":"2 52862  53.2184  22.1145 0001084  93.0555 267.0561 15.08897209 36503","APOAPSIS":"540.320","OBJECT_ID":"2022-062AJ","COUNTRY_CODE":"US","PERIAPSIS":"538.821","GP_ID":"225122684","DECAY_DATE":null,"SITE":"AFETR","OBJECT_NAME":"STARLINK-4010","PERIOD":"95.434","MEAN_MOTION":"15.08897209","MEAN_ELEMENT_THEORY":"SGP4","EPOCH":"2023-02-11T10:25:35.577120"},{"LAUNCH_DATE":"2022-06-17","MEAN_MOTION_DOT":"0.00000894","MEAN_MOTION_DDOT":"0.0000000000000","TIME_SYSTEM":"UTC","RA_OF_ASC_NODE":"19.7729","ARG_OF_PERICENTER":"90.7226","COUNTRY_CODE":"US","OBJECT_ID":"2022-062AK","TLE_LINE2":"2 52863  53.2198  19.7729 0000852  90.7226 269.3864 15.08837302 37072","APOAPSIS":"540.343","PERIAPSIS":"539.164","GP_ID":"225160452","DECAY_DATE":null,"SITE":"AFETR","PERIOD":"95.438","OBJECT_NAME":"STARLINK-4270","MEAN_MOTION":"15.08837302","MEAN_ELEMENT_THEORY":"SGP4","EPOCH":"2023-02-11T22:58:06.005280","SEMIMAJOR_AXIS":"6917.889","ECCENTRICITY":"0.00008520","CLASSIFICATION_TYPE":"U","TLE_LINE1":"1 52863U 22062AK  23042.95701395  .00000894  00000-0  74268-4 0  9998","NORAD_CAT_ID":"52863","ELEMENT_SET_NO":"999","CENTER_NAME":"EARTH","MEAN_ANOMALY":"269.3864","RCS_SIZE":"LARGE","EPHEMERIS_TYPE":"0","REV_AT_EPOCH":"3707","REF_FRAME":"TEME","FILE":"3786521","OBJECT_TYPE":"PAYLOAD","BSTAR":"0.00007426800000","INCLINATION":"53.2198"},{"NORAD_CAT_ID":"52864","TLE_LINE1":"1 52864U 22062AL  23042.96068891  .00001381  00000-0  10481-3 0  9995","CLASSIFICATION_TYPE":"U","SEMIMAJOR_AXIS":"6917.873","ECCENTRICITY":"0.00011720","MEAN_ANOMALY":"266.4025","RCS_SIZE":"LARGE","EPHEMERIS_TYPE":"0","ELEMENT_SET_NO":"999","CENTER_NAME":"EARTH","REV_AT_EPOCH":"3707","REF_FRAME":"TEME","BSTAR":"0.00010481000000","INCLINATION":"53.2187","FILE":"3786525","OBJECT_TYPE":"PAYLOAD","ARG_OF_PERICENTER":"93.7101","RA_OF_ASC_NODE":"19.7513","OBJECT_ID":"2022-062AL","COUNTRY_CODE":"US","APOAPSIS":"540.548","TLE_LINE2":"2 52864  53.2187  19.7513 0001172  93.7101 266.4025 15.08842555 37076","LAUNCH_DATE":"2022-06-17","MEAN_MOTION_DOT":"0.00001381","MEAN_MOTION_DDOT":"0.0000000000000","TIME_SYSTEM":"UTC","DECAY_DATE":null,"GP_ID":"225160396","SITE":"AFETR","PERIAPSIS":"538.927","MEAN_MOTION":"15.08842555","MEAN_ELEMENT_THEORY":"SGP4","PERIOD":"95.437","OBJECT_NAME":"STARLINK-4267","EPOCH":"2023-02-11T23:03:23.521824"}];
